Town_City,State,Postcode,Municipality
Melbourne,VIC,3000,Melbourne
East Melbourne,VIC,3000,Melbourne
East Melbourne,VIC,3002,Melbourne
North Melbourne,VIC,3003,Melbourne
St Kilda,VIC,3004,Port Phillip
South Melbourne,VIC,3004,Port Phillip
South Melbourne,VIC,3006,Port Phillip
Southbank,VIC,3006,Melbourne
Docklands,VIC,3008,Melbourne
Carlton,VIC,3010,Melbourne
Parkville,VIC,3010,Melbourne
Footscray,VIC,3011,Maribyrnong
Yarraville,VIC,3013,Maribyrnong
Newport,VIC,3015,Hobsons Bay
Williamstown,VIC,3016,Hobsons Bay
Newport,VIC,3016,Hobsons Bay
Altona,VIC,3018,Hobsons Bay
Braybrook,VIC,3019,Maribyrnong
Sunshine,VIC,3020,Brimbank
Sunshine North,VIC,3020,Brimbank
Sunshine West,VIC,3020,Brimbank
Cairnlea,VIC,3023,Brimbank
Caroline Springs,VIC,3023,Melton
Wyndham Vale,VIC,3024,Wyndham
Altona North,VIC,3025,Hobsons Bay
Laverton,VIC,3027,Wyndham
Altona Meadows,VIC,3028,Hobsons Bay
Laverton,VIC,3028,Wyndham
Seabrook,VIC,3028,Hobsons Bay
Tarneit,VIC,3029,Wyndham
Truganina,VIC,3029,Wyndham
Werribee,VIC,3030,Wyndham
Point Cook,VIC,3030,Wyndham
Wyndham Vale,VIC,3030,Wyndham
Kensington,VIC,3031,Melbourne
Flemington,VIC,3031,Essendon
Ascot Vale,VIC,3032,Essendon
Maribyrnong,VIC,3032,Maribyrnong
Kensington,VIC,3033,Keilor
Keilor,VIC,3036,Keilor
Hillside,VIC,3037,Melton
Sydenham,VIC,3037,Brimbank
Taylors Hill,VIC,3037,Melton
Delahey,VIC,3037,Brimbank
Keilor Downs,VIC,3038,Brimbank
Taylors Lakes,VIC,3038,Brimbank
Moonee Ponds,VIC,3039,Essendon
Strathmore,VIC,3041,Keilor
Airport West,VIC,3042,Keilor
Keilor,VIC,3042,Keilor
Tullamarine,VIC,3043,Hume
Pascoe Vale South,VIC,3044,Moreland
Pascoe Vale,VIC,3044,Moreland
Broadmeadows,VIC,3047,Hume
Meadow Heights,VIC,3048,Hume
Parkville,VIC,3050,Melbourne
North Melbourne,VIC,3051,Melbourne
Parkville,VIC,3052,Melbourne
Carlton,VIC,3053,Melbourne
Brunswick West,VIC,3055,Moreland
Brunswick,VIC,3056,Moreland
Brunswick East,VIC,3057,Moreland
Coburg North,VIC,3058,Moreland
Coburg,VIC,3058,Moreland
Fawkner,VIC,3060,Moreland
Fitzroy,VIC,3065,Yarra
Collingwood,VIC,3066,Yarra
Abbotsford,VIC,3067,Yarra
Fitzroy North,VIC,3068,Yarra
Northcote,VIC,3070,Darebin
Thornbury,VIC,3071,Darebin
Preston,VIC,3072,Darebin
Thomastown,VIC,3074,Whittlesea
Lalor,VIC,3075,Whittlesea
Epping,VIC,3076,Whittlesea
Ivanhoe,VIC,3079,Banyule
Heidelberg West,VIC,3081,Banyule
Kingsbury,VIC,3083,Darebin
Watsonia,VIC,3087,Banyule
Greensborough,VIC,3088,Banyule
Eltham,VIC,3095,Nillumbik
Hurstbridge,VIC,3099,Nillumbik
Kew,VIC,3101,Boroondara
Kew East,VIC,3102,Boroondara
Kew,VIC,3102,Boroondara
Balwyn,VIC,3103,Boroondara
Balwyn North,VIC,3104,Boroondara
Bulleen,VIC,3105,Manningham
Templestowe,VIC,3106,Manningham
Templestowe Lower,VIC,3107,Manningham
Templestowe,VIC,3107,Manningham
Doncaster,VIC,3108,Manningham
Doncaster East,VIC,3109,Manningham
Chirnside Park,VIC,3116,Yarra Ranges
Hawthorn,VIC,3122,Boroondara
Hawthorn East,VIC,3122,Boroondara
Hawthorn East,VIC,3123,Boroondara
Camberwell,VIC,3124,Boroondara
Hawthorn East,VIC,3124,Boroondara
Burwood,VIC,3125,Whitehorse
Box Hill,VIC,3128,Whitehorse
Box Hill North,VIC,3129,Whitehorse
Blackburn,VIC,3130,Whitehorse
Blackburn South,VIC,3130,Whitehorse
Nunawading,VIC,3131,Whitehorse
Forest Hill,VIC,3131,Whitehorse
Vermont,VIC,3133,Whitehorse
Vermont South,VIC,3133,Whitehorse
Ringwood North,VIC,3134,Maroondah
Ringwood,VIC,3134,Maroondah
Ringwood East,VIC,3135,Maroondah
Croydon,VIC,3136,Maroondah
Kilsyth,VIC,3137,Yarra Ranges
Mooroolbark,VIC,3138,Yarra Ranges
Toorak,VIC,3142,Stonnington
Armadale,VIC,3143,Stonnington
Malvern East,VIC,3145,Stonnington
Malvern East,VIC,3146,Stonnington
Wheelers Hill,VIC,3150,Monash
Burwood East,VIC,3151,Whitehorse
Wantirna South,VIC,3152,Knox
Wantirna,VIC,3152,Knox
Bayswater,VIC,3153,Knox
Bayswater North,VIC,3153,Maroondah
Ferntree Gully,VIC,3156,Knox
Lysterfield,VIC,3156,Knox
Carnegie,VIC,3163,Glen Eira
Murrumbeena,VIC,3163,Glen Eira
Bentleigh East,VIC,3165,Glen Eira
Hughesdale,VIC,3166,Glen Eira
Clayton,VIC,3168,Monash
Clayton South,VIC,3169,Greater Dandenong
Mulgrave,VIC,3170,Monash
Springvale,VIC,3171,Greater Dandenong
Noble Park,VIC,3172,Greater Dandenong
Dingley Village,VIC,3172,Greater Dandenong
Springvale South,VIC,3172,Greater Dandenong
Keysborough,VIC,3173,Greater Dandenong
Noble Park,VIC,3174,Greater Dandenong
Noble Park North,VIC,3174,Greater Dandenong
Dandenong,VIC,3175,Greater Dandenong
Dandenong North,VIC,3175,Greater Dandenong
Doveton,VIC,3177,Casey
St Kilda,VIC,3182,Port Phillip
St Kilda East,VIC,3182,Port Phillip
St Kilda East,VIC,3183,Port Phillip
Elwood,VIC,3184,Port Phillip
Elsternwick,VIC,3185,Glen Eira
Brighton East,VIC,3187,Bayside
Hampton,VIC,3188,Bayside
Beaumaris,VIC,3193,Bayside
Mentone,VIC,3194,Kingston
Braeside,VIC,3195,Kingston
Chelsea Heights,VIC,3196,Kingston
Frankston,VIC,3199,Frankston
Frankston South,VIC,3199,Frankston
Carrum Downs,VIC,3201,Frankston
South Melbourne,VIC,3205,Port Phillip
Albert Park,VIC,3206,Port Phillip
Port Melbourne,VIC,3207,Port Phillip
Melton,VIC,3337,Melton
Melton West,VIC,3337,Melton
Melton South,VIC,3338,Melton
Bacchus Marsh,VIC,3340,Melton
Sunbury,VIC,3429,Sunbury
Riddells Creek,VIC,3431,Macedon Ranges
Romsey,VIC,3434,Macedon Ranges
Gisborne,VIC,3437,Macedon Ranges
Macedon,VIC,3441,Macedon Ranges
South Morang,VIC,3752,Whittlesea
Wallan,VIC,3756,Whittlesea
Whittlesea,VIC,3757,Whittlesea
Kinglake,VIC,3757,Nillumbik
Kinglake,VIC,3763,Nillumbik
Montrose,VIC,3765,Yarra Ranges
Mount Evelyn,VIC,3796,Yarra Ranges
Clayton,VIC,3800,Monash
Endeavour Hills,VIC,3802,Casey
Hallam,VIC,3803,Casey
Narre Warren North,VIC,3804,Casey
Narre Warren,VIC,3805,Casey
Narre Warren South,VIC,3805,Casey
Langwarrin,VIC,3910,Frankston
Somerville,VIC,3912,Mornington Peninsula
Somerville,VIC,3913,Mornington Peninsula
Flinders,VIC,3929,Mornington Peninsula
Mount Eliza,VIC,3930,Mornington Peninsula
Mornington,VIC,3931,Mornington Peninsula
Mount Martha,VIC,3934,Mornington Peninsula
Dromana,VIC,3936,Mornington Peninsula
Cranbourne,VIC,3977,Casey
Cranbourne East,VIC,3977,Casey
Cranbourne West,VIC,3977,Casey
Cranbourne South,VIC,3977,Casey
Cranbourne North,VIC,3977,Casey
Koo Wee Rup,VIC,3981,Cardinia